STARLINK-30998          
1 58513U 23191F   26068.45569161  .00008137  00000+0  31234-3 0  9991
2 58513  43.0003 104.9154 0001083 269.4650  90.6078 15.26777394125461
FLOCK 4G-18             
1 62680U 25009BZ  26068.19114186  .00011766  00000+0  44319-3 0  9995
2 62680  97.4054 150.5008 0004100 335.7331  24.3715 15.27241676121267
